[{"OBJECT_NAME":"STARLINK-3397","OBJECT_ID":"2022-005M","EPOCH":"2026-03-09T21:06:18.379296","MEAN_MOTION":15.08815755,"ECCENTRICITY":0.00013452,"INCLINATION":53.2187,"RA_OF_ASC_NODE":288.2684,"ARG_OF_PERICENTER":114.7264,"MEAN_ANOMALY":245.3868,"EPHEMERIS_TYPE":0,"CLASSIFICATION_TYPE":"U","NORAD_CAT_ID":51115,"ELEMENT_SET_NO":999,"REV_AT_EPOCH":22890,"BSTAR":6.9190501e-5,"MEAN_MOTION_DOT":8.13e-6,"MEAN_MOTION_DDOT":0},{"OBJECT_NAME":"CZ-6A DEB","OBJECT_ID":"2024-140GE","EPOCH":"2026-03-09T23:15:37.114848","MEAN_MOTION":15.28179091,"ECCENTRICITY":0.00907227,"INCLINATION":89.625,"RA_OF_ASC_NODE":325.5051,"ARG_OF_PERICENTER":77.5431,"MEAN_ANOMALY":283.5952,"EPHEMERIS_TYPE":0,"CLASSIFICATION_TYPE":"U","NORAD_CAT_ID":60803,"ELEMENT_SET_NO":999,"REV_AT_EPOCH":8608,"BSTAR":0.0028689301,"MEAN_MOTION_DOT":0.00089907,"MEAN_MOTION_DDOT":0}]
